start=new Date('2023-03-06T00:00:00.000Z').valueOf();
sats=[{"GP_ID":"227580928","INCLINATION":"53.0507","PERIAPSIS":"546.656","CENTER_NAME":"EARTH","NORAD_CAT_ID":"47353","COUNTRY_CODE":"US","MEAN_MOTION":"15.06400097","LAUNCH_DATE":"2021-01-20","RA_OF_ASC_NODE":"263.9683","OBJECT_NAME":"STARLINK-2045","DECAY_DATE":null,"SEMIMAJOR_AXIS":"6925.348","MEAN_ELEMENT_THEORY":"SGP4","MEAN_MOTION_DOT":"0.00007388","OBJECT_ID":"2021-005E","FILE":"3852256","APOAPSIS":"547.771","EPOCH":"2023-03-05T20:32:11.405184","REF_FRAME":"TEME","ECCENTRICITY":"0.00008050","TLE_LINE1":"1 47353U 21005E   23064.85568756  .00007388  00000-0  51434-3 0  9991","BSTAR":"0.00051434000000","REV_AT_EPOCH":"11804","ELEMENT_SET_NO":"999","ARG_OF_PERICENTER":"94.1693","TLE_LINE2":"2 47353  53.0507 263.9683 0000805  94.1693 265.9388 15.06400097118043","OBJECT_TYPE":"PAYLOAD","TIME_SYSTEM":"UTC","RCS_SIZE":"LARGE","MEAN_ANOMALY":"265.9388","PERIOD":"95.592","EPHEMERIS_TYPE":"0","CLASSIFICATION_TYPE":"U","SITE":"AFETR","MEAN_MOTION_DDOT":"0.0000000000000"},{"CLASSIFICATION_TYPE":"U","SITE":"AFETR","MEAN_MOTION_DDOT":"0.0000000000000","RCS_SIZE":"LARGE","EPHEMERIS_TYPE":"0","PERIOD":"95.589","MEAN_ANOMALY":"308.2651","ELEMENT_SET_NO":"999","TIME_SYSTEM":"UTC","TLE_LINE2":"2 47354  53.0534 283.9048 0001319  51.8457 308.2651 15.06450342118424","OBJECT_TYPE":"PAYLOAD","ARG_OF_PERICENTER":"51.8457","REV_AT_EPOCH":"11842","BSTAR":"0.00241320000000","APOAPSIS":"547.973","EPOCH":"2023-03-05T20:50:47.191200","REF_FRAME":"TEME","OBJECT_ID":"2021-005F","FILE":"3852049","TLE_LINE1":"1 47354U 21005F   23064.86860175  .00035896  00000-0  24132-2 0  9992","ECCENTRICITY":"0.00013190","SEMIMAJOR_AXIS":"6925.194","MEAN_ELEMENT_THEORY":"SGP4","DECAY_DATE":null,"MEAN_MOTION_DOT":"0.00035896","RA_OF_ASC_NODE":"283.9048","MEAN_MOTION":"15.06450342","COUNTRY_CODE":"US","LAUNCH_DATE":"2021-01-20","OBJECT_NAME":"STARLINK-2046","PERIAPSIS":"546.146","GP_ID":"227554580","INCLINATION":"53.0534","NORAD_CAT_ID":"47354","CENTER_NAME":"EARTH"},{"RCS_SIZE":"LARGE","PERIOD":"95.592","EPHEMERIS_TYPE":"0","MEAN_ANOMALY":"278.2757","CLASSIFICATION_TYPE":"U","SITE":"AFETR","MEAN_MOTION_DDOT":"0.0000000000000","BSTAR":"0.00033460000000","ELEMENT_SET_NO":"999","TLE_LINE2":"2 47355  53.0529 269.1022 0000741  81.8316 278.2757 15.06395942117967","OBJECT_TYPE":"PAYLOAD","TIME_SYSTEM":"UTC","ARG_OF_PERICENTER":"81.8316","REV_AT_EPOCH":"11796","MEAN_ELEMENT_THEORY":"SGP4","SEMIMAJOR_AXIS":"6925.361","DECAY_DATE":null,"MEAN_MOTION_DOT":"0.00004706","APOAPSIS":"547.739","EPOCH":"2023-03-05T19:46:24.927168","REF_FRAME":"TEME","OBJECT_ID":"2021-005G","FILE":"3852256","TLE_LINE1":"1 47355U 21005G   23064.82389962  .00004706  00000-0  33460-3 0  9990","ECCENTRICITY":"0.00007410","PERIAPSIS":"546.713","GP_ID":"227579933","INCLINATION":"53.0529","NORAD_CAT_ID":"47355","CENTER_NAME":"EARTH","RA_OF_ASC_NODE":"269.1022","COUNTRY_CODE":"US","MEAN_MOTION":"15.06395942","LAUNCH_DATE":"2021-01-20","OBJECT_NAME":"STARLINK-2047"},{"SEMIMAJOR_AXIS":"6925.332","MEAN_ELEMENT_THEORY":"SGP4","DECAY_DATE":null,"MEAN_MOTION_DOT":"0.00016595","EPOCH":"2023-03-05T22:28:18.244992","REF_FRAME":"TEME","APOAPSIS":"548.085","FILE":"3852256","OBJECT_ID":"2021-005H","ECCENTRICITY":"0.00012830","TLE_LINE1":"1 47356U 21005H   23064.93632228  .00016595  00000-0  11302-2 0  9998","PERIAPSIS":"546.308","INCLINATION":"53.0542","GP_ID":"227580183","NORAD_CAT_ID":"47356","CENTER_NAME":"EARTH","RA_OF_ASC_NODE":"288.6044","LAUNCH_DATE":"2021-01-20","COUNTRY_CODE":"US","MEAN_MOTION":"15.06405497","OBJECT_NAME":"STARLINK-2049","RCS_SIZE":"LARGE","PERIOD":"95.592","EPHEMERIS_TYPE":"0","MEAN_ANOMALY":"306.4104","SITE":"AFETR","CLASSIFICATION_TYPE":"U","MEAN_MOTION_DDOT":"0.0000000000000","BSTAR":"0.00113020000000","TLE_LINE2":"2 47356  53.0542 288.6044 0001283  53.7003 306.4104 15.06405497117705","OBJECT_TYPE":"PAYLOAD","ARG_OF_PERICENTER":"53.7003","TIME_SYSTEM":"UTC","ELEMENT_SET_NO":"999","REV_AT_EPOCH":"11770"},{"BSTAR":"0.00086630000000","ELEMENT_SET_NO":"999","TLE_LINE2":"2 47357  53.0528 318.8716 0001460  88.6466 271.4691 15.06401495117277","OBJECT_TYPE":"PAYLOAD","ARG_OF_PERICENTER":"88.6466","TIME_SYSTEM":"UTC","REV_AT_EPOCH":"11727","RCS_SIZE":"LARGE","EPHEMERIS_TYPE":"0","PERIOD":"95.592","MEAN_ANOMALY":"271.4691","CLASSIFICATION_TYPE":"U","SITE":"AFETR","MEAN_MOTION_DDOT":"0.0000000000000","PERIAPSIS":"546.198","GP_ID":"227581406","INCLINATION":"53.0528","NORAD_CAT_ID":"47357","CENTER_NAME":"EARTH","RA_OF_ASC_NODE":"318.8716","MEAN_MOTION":"15.06401495","COUNTRY_CODE":"US","LAUNCH_DATE":"2021-01-20","OBJECT_NAME":"STARLINK-2050","MEAN_ELEMENT_THEORY":"SGP4","SEMIMAJOR_AXIS":"6925.344","DECAY_DATE":null,"MEAN_MOTION_DOT":"0.00012646","APOAPSIS":"548.220","EPOCH":"2023-03-05T21:04:42.176352","REF_FRAME":"TEME","OBJECT_ID":"2021-005J","FILE":"3852256","TLE_LINE1":"1 47357U 21005J   23064.87826593  .00012646  00000-0  86630-3 0  9992","ECCENTRICITY":"0.00014600"},{"EPHEMERIS_TYPE":"0","PERIOD":"95.592","MEAN_ANOMALY":"249.8754","RCS_SIZE":"LARGE","MEAN_MOTION_DDOT":"0.0000000000000","CLASSIFICATION_TYPE":"U","SITE":"AFETR","BSTAR":"0.00038103000000","ELEMENT_SET_NO":"999","TLE_LINE2":"2 47358  53.0534 288.8475 0001073 110.2351 249.8754 15.06395016117694","OBJECT_TYPE":"PAYLOAD","ARG_OF_PERICENTER":"110.2351","TIME_SYSTEM":"UTC","REV_AT_EPOCH":"11769","MEAN_MOTION_DOT":"0.00005398","MEAN_ELEMENT_THEORY":"SGP4","SEMIMAJOR_AXIS":"6925.364","DECAY_DATE":null,"ECCENTRICITY":"0.00010730","TLE_LINE1":"1 47358U 21005K   23064.88008237  .00005398  00000-0  38103-3 0  9999","APOAPSIS":"547.972","EPOCH":"2023-03-05T21:07:19.116768","REF_FRAME":"TEME","OBJECT_ID":"2021-005K","FILE":"3852256","NORAD_CAT_ID":"47358","CENTER_NAME":"EARTH","PERIAPSIS":"546.486","GP_ID":"227579890","INCLINATION":"53.0534","OBJECT_NAME":"STARLINK-2055","RA_OF_ASC_NODE":"288.8475","MEAN_MOTION":"15.06395016","COUNTRY_CODE":"US","LAUNCH_DATE":"2021-01-20"},{"PERIOD":"95.592","EPHEMERIS_TYPE":"0","MEAN_ANOMALY":"266.7376","RCS_SIZE":"LARGE","MEAN_MOTION_DDOT":"0.0000000000000","CLASSIFICATION_TYPE":"U","SITE":"AFETR","BSTAR":"0.00102890000000","ELEMENT_SET_NO":"999","ARG_OF_PERICENTER":"93.3724","TLE_LINE2":"2 47359  53.0547 313.5094 0000967  93.3724 266.7376 15.06408501117353","OBJECT_TYPE":"PAYLOAD","TIME_SYSTEM":"UTC","REV_AT_EPOCH":"11735","MEAN_MOTION_DOT":"0.00015081","SEMIMAJOR_AXIS":"6925.323","MEAN_ELEMENT_THEORY":"SGP4","DECAY_DATE":null,"TLE_LINE1":"1 47359U 21005L   23064.95797612  .00015081  00000-0  10289-2 0  9994","ECCENTRICITY":"0.00009670","APOAPSIS":"547.857","EPOCH":"2023-03-05T22:59:29.136768","REF_FRAME":"TEME","OBJECT_ID":"2021-005L","FILE":"3852256","NORAD_CAT_ID":"47359","CENTER_NAME":"EARTH","PERIAPSIS":"546.518","GP_ID":"227580411","INCLINATION":"53.0547","OBJECT_NAME":"STARLINK-2069","RA_OF_ASC_NODE":"313.5094","MEAN_MOTION":"15.06408501","COUNTRY_CODE":"US","LAUNCH_DATE":"2021-01-20"},{"SITE":"AFETR","CLASSIFICATION_TYPE":"U","MEAN_MOTION_DDOT":"0.0000000000000","RCS_SIZE":"LARGE","MEAN_ANOMALY":"275.5488","PERIOD":"95.589","EPHEMERIS_TYPE":"0","REV_AT_EPOCH":"11777","TLE_LINE2":"2 47360  53.0518 283.7790 0000933  84.5608 275.5488 15.06449553117770","TIME_SYSTEM":"UTC","OBJECT_TYPE":"PAYLOAD","ARG_OF_PERICENTER":"84.5608","ELEMENT_SET_NO":"999","BSTAR":"0.00230100000000","FILE":"3852039","OBJECT_ID":"2021-005M","EPOCH":"2023-03-05T21:33:15.398496","REF_FRAME":"TEME","APOAPSIS":"547.708","TLE_LINE1":"1 47360U 21005M   23064.89809489  .00034205  00000-0  23010-2 0  9990","ECCENTRICITY":"0.00009330","DECAY_DATE":null,"SEMIMAJOR_AXIS":"6925.197","MEAN_ELEMENT_THEORY":"SGP4","MEAN_MOTION_DOT":"0.00034205","LAUNCH_DATE":"2021-01-20","MEAN_MOTION":"15.06449553","COUNTRY_CODE":"US","RA_OF_ASC_NODE":"283.7790","OBJECT_NAME":"STARLINK-2070","INCLINATION":"53.0518","GP_ID":"227554161","PERIAPSIS":"546.416","CENTER_NAME":"EARTH","NORAD_CAT_ID":"47360"},{"TLE_LINE1":"1 47361U 21005N   23064.88840653 -.00009339  00000-0 -60929-3 0  9991","ECCENTRICITY":"0.00006910","OBJECT_ID":"2021-005N","FILE":"3852039","APOAPSIS":"547.767","EPOCH":"2023-03-05T21:19:18.324192","REF_FRAME":"TEME","MEAN_MOTION_DOT":"-0.00009339","DECAY_DATE":null,"SEMIMAJOR_AXIS":"6925.424","MEAN_ELEMENT_THEORY":"SGP4","OBJECT_NAME":"STARLINK-2071","COUNTRY_CODE":"US","MEAN_MOTION":"15.06375511","LAUNCH_DATE":"2021-01-20","RA_OF_ASC_NODE":"288.8144","CENTER_NAME":"EARTH","NORAD_CAT_ID":"47361","GP_ID":"227554364","INCLINATION":"53.0524","PERIAPSIS":"546.810","MEAN_MOTION_DDOT":"0.0000000000000","CLASSIFICATION_TYPE":"U","SITE":"AFETR","MEAN_ANOMALY":"267.7865","EPHEMERIS_TYPE":"0","PERIOD":"95.594","RCS_SIZE":"LARGE","REV_AT_EPOCH":"11864","ELEMENT_SET_NO":"999","OBJECT_TYPE":"PAYLOAD","TLE_LINE2":"2 47361  53.0524 288.8144 0000691  92.3202 267.7865 15.06375511118646","ARG_OF_PERICENTER":"92.3202","TIME_SYSTEM":"UTC","BSTAR":"-0.00060929000000"},{"RCS_SIZE":"LARGE","EPHEMERIS_TYPE":"0","PERIOD":"95.592","MEAN_ANOMALY":"257.1839","CLASSIFICATION_TYPE":"U","SITE":"AFETR","MEAN_MOTION_DDOT":"0.0000000000000","BSTAR":"0.00063078000000","ELEMENT_SET_NO":"999","OBJECT_TYPE":"PAYLOAD","TLE_LINE2":"2 47362  53.0531 318.6210 0001081 102.9270 257.1839 15.06395404117284","ARG_OF_PERICENTER":"102.9270","TIME_SYSTEM":"UTC","REV_AT_EPOCH":"11728","SEMIMAJOR_AXIS":"6925.363","MEAN_ELEMENT_THEORY":"SGP4","DECAY_DATE":null,"MEAN_MOTION_DOT":"0.00009125","APOAPSIS":"547.976","EPOCH":"2023-03-05T22:24:19.301472","REF_FRAME":"TEME","OBJECT_ID":"2021-005P","FILE":"3852256","TLE_LINE1":"1 47362U 21005P   23064.93355673  .00009125  00000-0  63078-3 0  9990","ECCENTRICITY":"0.00010810","PERIAPSIS":"546.479","GP_ID":"227579914","INCLINATION":"53.0531","NORAD_CAT_ID":"47362","CENTER_NAME":"EARTH","RA_OF_ASC_NODE":"318.6210","MEAN_MOTION":"15.06395404","COUNTRY_CODE":"US","LAUNCH_DATE":"2021-01-20","OBJECT_NAME":"STARLINK-2076"}];
